[
  {
    "Code": "P-E---1",
    "Name_EN": "Night Market",
    "Name_CH": "",
    "City": "",
    "Details": "Taiwan�s night markets are vibrant hubs of street food, shopping, and games. Examples:\n\nNingxia Night Market (Taipei) � Famous for oyster omelets and peanut ice cream rolls.\nLiuhe Night Market (Kaohsiung) � Seafood lovers� paradise.\nFengjia Night Market (Taichung) � One of the largest in Taiwan.",
    "Img_source": "a"
  },
{
    "Code": "P-E---2",
    "Name_EN": "Temple",
    "Name_CH": "",
    "City": "",
    "Details": "Temples in Taiwan are not only religious centers but also architectural and cultural treasures. They reflect a blend of Taoist, Buddhist, and folk beliefs, often bustling with rituals and festivals. Examples:\n\nLongshan Temple (Taipei) � Historic and ornate, a spiritual heart of the city.\nZhenlan Temple (Dajia, Taichung) � Famous for the Mazu pilgrimage.\nFo Guang Shan (Kaohsiung) � A massive Buddhist complex with a giant Buddha statue.",
    "Img_source": "b"
  },
{
    "Code": "P-E---3",
    "Name_EN": "National Park / Hiking Trail",
    "Name_CH": "",
    "City": "",
    "Details": "Taiwan�s natural beauty is showcased in its national parks and hiking trails, ranging from coastal cliffs to alpine forests. These spots are ideal for outdoor enthusiasts and nature lovers.\n\nExamples:\n\nTaroko National Park � Marble gorges and scenic trails.\nYangmingshan National Park � Hot springs and volcanic landscapes near Taipei.\nAlishan Forest Railway & Trails � Sunrise views and ancient cypress trees.",
    "Img_source": "c"
  },
{
    "Code": "P-E---1",
    "Name_EN": "Indigenous Cultural Heritage Site",
    "Name_CH": "",
    "City": "",
    "Details": "Taiwan�s indigenous communities preserve rich traditions, languages, and crafts. Visiting these sites offers insight into the island�s original cultures and their deep connection to nature.\n\nExamples:\n\nSmangus (Hsinchu) � A remote Atayal village known for giant trees and eco-tourism.\nKuban Village (Taitung) � Amis cultural experiences and traditional music.\nWulai (New Taipei) � Accessible Atayal area with hot springs and cultural shows.",
    "Img_source": "d"
  },

{
    "Code": "P-C-a-N-1",
    "Name_EN": "Zhongshan District",
    "Name_CH": "???",
    "City": "Taipei",
    "Details": "A stylish area filled with designer boutiques, indie brands, and cozy caf�s, making it one of Taipei�s favorite spots for young trendsetters.",
    "Img_source": "Midjourney"
  },
  {
    "Code": "P-C-a-N-2",
    "Name_EN": "Ximending ???",
    "Name_CH": "???",
    "City": "Taipei",
    "Details": "Known as Taipei�s youth fashion hub, Ximending is packed with trendy shops, street food, and vibrant nightlife. It�s often compared to Tokyo�s Shibuya.",
    "Img_source": "??????"
  },
  {
    "Code": "P-C-a-N-3",
    "Name_EN": "Taipei 101 Mall",
    "Name_CH": "101 Mall ??101????",
    "City": "Taipei",
    "Details": "Beyond being a landmark, Taipei 101 hosts luxury brands, international shops, and a world-class shopping experience.",
    "Img_source": "-"
  },
  {
    "Code": "P-C-a-SE-1",
    "Name_EN": "Dream Mall",
    "Name_CH": "???????",
    "City": "Kaohsiung",
    "Details": "The largest shopping mall in southern Taiwan, featuring fashion, entertainment, and even a rooftop Ferris wheel.",
    "Img_source": "-"
  },
  {
    "Code": "P-C-a-SE-2",
    "Name_EN": "Hanshin Arena Shopping Plaza",
    "Name_CH": "????????",
    "City": "Kaohsiung",
    "Details": "A trendy shopping complex next to the Kaohsiung Arena, offering fashion, lifestyle, and entertainment in one spot.",
    "Img_source": "-"
  },
  {
    "Code": "P-C-a-SE-3",
    "Name_EN": "Hayashi Department Store",
    "Name_CH": "???",
    "City": "Tainan",
    "Details": "A beautifully restored historic department store blending old Japanese-era architecture with modern lifestyle shops, perfect for a cultural shopping stroll.",
    "Img_source": "-"
  },
  {
    "Code": "P-C-b-N-1",
    "Name_EN": "Huashan 1914 Creative Park",
    "Name_CH": "??1914????????",
    "City": "Taipei",
    "Details": "Once a Japanese-era sake distillery, now transformed into a cultural hub filled with art exhibitions, design shops, and trendy caf�s.",
    "Img_source": "-"
  },
  {
    "Code": "P-C-b-N-2",
    "Name_EN": "Songshan Cultural and Creative Park",
    "Name_CH": "Cultural and Creative Park ??????",
    "City": "Taipei",
    "Details": "A renovated tobacco factory that�s now a hotspot for design markets, exhibitions, and creative events.",
    "Img_source": "-"
  },
  {
    "Code": "P-C-b-N-3",
    "Name_EN": "Treasure Hill",
    "Name_CH": "????????",
    "City": "Taipei",
    "Details": "A historic hillside settlement turned into an artist village, showcasing contemporary art and experimental creativity.",
    "Img_source": "-"
  },
  {
    "Code": "P-C-b-SE-1",
    "Name_EN": "Pier-2 Art Center",
    "Name_CH": "??????",
    "City": "Kaohsiung",
    "Details": "A vibrant arts district by the harbor, packed with murals, installations, and creative markets.",
    "Img_source": "-"
  },
  {
    "Code": "P-C-b-SE-2",
    "Name_EN": "Blueprint Cultural & Creative Park",
    "Name_CH": "???????",
    "City": "Tainan",
    "Details": "Famous for its �blueprint� wall art, this area is filled with indie shops, cultural exhibitions, and creative vibes.",
    "Img_source": "-"
  },
  {
    "Code": "P-C-b-SE-3",
    "Name_EN": "Chimei Museum",
    "Name_CH": "?????",
    "City": "Tainan",
    "Details": "European-style museum famed for art, instruments, and natural history.",
    "Img_source": "-"
  },
  {
    "Code": "P-C-c-N-1",
    "Name_EN": "OMNI",
    "Name_CH": "",
    "City": "Taipei",
    "Details": "Upscale club with world-class DJs, light shows, and a stylish party vibe popular among locals and expats.",
    "Img_source": "-"
  },
  {
    "Code": "P-C-c-N-2",
    "Name_EN": "Fake Sober",
    "Name_CH": "",
    "City": "Taipei",
    "Details": "Trendy cocktail club blending sleek design, creative drinks, and DJ sets�perfect for young trendsetters.",
    "Img_source": "-"
  },
  {
    "Code": "P-C-c-N-3",
    "Name_EN": "Triangle",
    "Name_CH": "",
    "City": "Taipei",
    "Details": "Casual club with mixed music styles, street food nearby, and a welcoming vibe for students and travelers.",
    "Img_source": "-"
  },
  {
    "Code": "P-C-c-SE-1",
    "Name_EN": "Lamp Disco",
    "Name_CH": "",
    "City": "Kaohsiung",
    "Details": "Iconic nightclub hosting big EDM parties, light shows, and a lively young crowd.",
    "Img_source": "-"
  },
  {
    "Code": "P-C-c-SE-2",
    "Name_EN": "TCRC",
    "Name_CH": "",
    "City": "Tainan",
    "Details": "A speakeasy-style bar in a historic townhouse, recognized in Asia�s 50 Best Bars, offering 300+ whiskies and creative cocktails.",
    "Img_source": "-"
  },
  {
    "Code": "P-C-c-SE-3",
    "Name_EN": "Chikan Apothecary",
    "Name_CH": "?????",
    "City": "Tainan",
    "Details": "Hidden speakeasy mixing traditional apothecary decor with modern cocktails, loved by locals and tourists.",
    "Img_source": "-"
  },
  {
    "Code": "P-C-d-N-1",
    "Name_EN": "Shilin Night Market",
    "Name_CH": "????",
    "City": "Taipei",
    "Details": "Taipei�s largest night market, famous for street food, quirky snacks, and fun carnival games � a must-visit for first-timers.",
    "Img_source": "-"
  },
  {
    "Code": "P-C-d-N-2",
    "Name_EN": "Raohe Street Night Market",
    "Name_CH": "?????",
    "City": "Taipei",
    "Details": "Known for its authentic Taiwanese street food like pepper buns, this lively market offers a more traditional vibe in the city.",
    "Img_source": "-"
  },
  {
    "Code": "P-C-d-N-3",
    "Name_EN": "Ningxia Night Market",
    "Name_CH": "????",
    "City": "Taipei",
    "Details": "A compact yet famous night market offering a curated selection of classic Taiwanese snacks, loved by locals and tourists alike.",
    "Img_source": "-"
  },
  {
    "Code": "P-C-d-SE-1",
    "Name_EN": "Liuhe Night Market",
    "Name_CH": "????",
    "City": "Kaohsiung",
    "Details": "Kaohsiung�s iconic night market by the harbor, offering fresh seafood, bubble tea, and a bustling night-time atmosphere.",
    "Img_source": "-"
  },
  {
    "Code": "P-C-d-SE-2",
    "Name_EN": "Ruifeng Night Market",
    "Name_CH": "????",
    "City": "Kaohsiung",
    "Details": "Popular among locals for late-night eats, carnival games, and a lively street food scene.",
    "Img_source": "-"
  },
  {
    "Code": "P-C-d-SE-3",
    "Name_EN": "Huayuan Street & Chihkan Night Area",
    "Name_CH": "???? / ????",
    "City": "Tainan",
    "Details": "A mix of historic streets and night market stalls where you can enjoy Tainan�s famous snacks and local culture.",
    "Img_source": "-"
  },
  {
    "Code": "P-N-a-N-1",
    "Name_EN": "Elephant Mountain",
    "Name_CH": "??",
    "City": "Taipei",
    "Details": "A quick, easy climb with sweeping Taipei 101 views�perfect for sunset photos.",
    "Img_source": "-"
  },
  {
    "Code": "P-N-a-N-2",
    "Name_EN": "Yangmingshan National Park",
    "Name_CH": "???????",
    "City": "Taipei",
    "Details": "With only half hour from downtown Taipei by metro, you can see volcanic landscapes (sulfur vents and hot springs...), flower fields and trails for all levels.",
    "Img_source": "-"
  },
  {
    "Code": "P-N-a-N-3",
    "Name_EN": "Teapot Mountain",
    "Name_CH": "???",
    "City": "New Taipei",
    "Details": "A scenic coastal hike with unique rock shapes and breathtaking ocean views.",
    "Img_source": "-"
  },
  {
    "Code": "P-N-a-N-4",
    "Name_EN": "Trails in Tea Mountain (Comphor Trail)",
    "Name_CH": "??????",
    "City": "Taipei",
    "Details": "Take the Maokong Gondola from Taipei Zoo MRT Station up into the hills. The ride offers amazing views of Taipei and the tea-growing region. Walk on the trails to see the old Taiwan farm scenes and taste the tea oil made dishes.",
    "Img_source": "-"
  },
  {
    "Code": "P-N-a-N-5",
    "Name_EN": "Jialuo Lake",
    "Name_CH": "???",
    "City": "Yilan",
    "Details": "(For advanced hiker) It�s not just one lake but a cluster of about 20 small lakes, often called the �Scattered Pearls� because of their distribution across the forested landscape.",
    "Img_source": "-"
  }
]
